[{"OBJECT_NAME":"STARLINK-30924","OBJECT_ID":"2023-180L","EPOCH":"2026-03-09T13:15:44.812800","MEAN_MOTION":15.32095286,"ECCENTRICITY":0.00011382,"INCLINATION":43.0016,"RA_OF_ASC_NODE":265.3714,"ARG_OF_PERICENTER":269.978,"MEAN_ANOMALY":90.0943,"EPHEMERIS_TYPE":0,"CLASSIFICATION_TYPE":"U","NORAD_CAT_ID":58412,"ELEMENT_SET_NO":999,"REV_AT_EPOCH":12934,"BSTAR":3.0113773e-5,"MEAN_MOTION_DOT":6.78e-6,"MEAN_MOTION_DDOT":0},{"OBJECT_NAME":"SCS-01 M","OBJECT_ID":"2025-100M","EPOCH":"2026-03-09T23:50:15.541152","MEAN_MOTION":15.31880861,"ECCENTRICITY":0.00078021,"INCLINATION":97.3725,"RA_OF_ASC_NODE":145.6908,"ARG_OF_PERICENTER":292.3826,"MEAN_ANOMALY":67.6588,"EPHEMERIS_TYPE":0,"CLASSIFICATION_TYPE":"U","NORAD_CAT_ID":63993,"ELEMENT_SET_NO":999,"REV_AT_EPOCH":4565,"BSTAR":0.0012010051,"MEAN_MOTION_DOT":0.00037061,"MEAN_MOTION_DDOT":0}]
